{
    "links": {
        "self": "http://www.neowsapp.com/rest/v1/neo/3879729?api_key=iIulBulltgU6a56xZRHN4H3l9WmuAYTsLGpBGhQ2"
    },
    "id": "3879729",
    "neo_reference_id": "3879729",
    "name": "(2019 UV6)",
    "designation": "2019 UV6",
    "nasa_jpl_url": "http://ssd.jpl.nasa.gov/sbdb.cgi?sstr=3879729",
    "absolute_magnitude_h": 22.9,
    "estimated_diameter": {
        "kilometers": {
            "estimated_diameter_min": 0.0699125232,
            "estimated_diameter_max": 0.1563291544
        },
        "meters": {
            "estimated_diameter_min": 69.9125232246,
            "estimated_diameter_max": 156.3291544087
        },
        "miles": {
            "estimated_diameter_min": 0.0434416145,
            "estimated_diameter_max": 0.097138403
        },
        "feet": {
            "estimated_diameter_min": 229.3718026961,
            "estimated_diameter_max": 512.8909429502
        }
    },
    "is_potentially_hazardous_asteroid": false,
    "close_approach_data": [
        {
            "close_approach_date": "2019-10-24",
            "close_approach_date_full": "2019-Oct-24 17:22",
            "epoch_date_close_approach": 1571937720000,
            "relative_velocity": {
                "kilometers_per_second": "13.7589037718",
                "kilometers_per_hour": "49532.0535785164",
                "miles_per_hour": "30777.291847162"
            },
            "miss_distance": {
                "astronomical": "0.0862820232",
                "lunar": "33.5637070248",
                "kilometers": "12907606.890010584",
                "miles": "8020415.0098666992"
            },
            "orbiting_body": "Earth"
        },
        {
            "close_approach_date": "2049-04-14",
            "close_approach_date_full": "2049-Apr-14 12:04",
            "epoch_date_close_approach": 2502014640000,
            "relative_velocity": {
                "kilometers_per_second": "13.1744150269",
                "kilometers_per_hour": "47427.8940969325",
                "miles_per_hour": "29469.8489737301"
            },
            "miss_distance": {
                "astronomical": "0.0483368982",
                "lunar": "18.8030533998",
                "kilometers": "7231097.013126834",
                "miles": "4493195.3317209492"
            },
            "orbiting_body": "Mars"
        },
        {
            "close_approach_date": "2052-08-25",
            "close_approach_date_full": "2052-Aug-25 14:45",
            "epoch_date_close_approach": 2608209900000,
            "relative_velocity": {
                "kilometers_per_second": "9.6116015988",
                "kilometers_per_hour": "34601.7657555062",
                "miles_per_hour": "21500.1916162477"
            },
            "miss_distance": {
                "astronomical": "0.0729043572",
                "lunar": "28.3597949508",
                "kilometers": "10906336.550839164",
                "miles": "6776883.2844379032"
            },
            "orbiting_body": "Earth"
        }
    ],
    "orbital_data": {
        "orbit_id": "12",
        "orbit_determination_date": "2019-12-04 07:20:41",
        "first_observation_date": "2019-10-21",
        "last_observation_date": "2019-11-18",
        "data_arc_in_days": 28,
        "observations_used": 59,
        "orbit_uncertainty": "7",
        "minimum_orbit_intersection": ".00714155",
        "jupiter_tisserand_invariant": "3.265",
        "epoch_osculation": "2459000.5",
        "eccentricity": ".6079013241730324",
        "semi_major_axis": "2.373040288278349",
        "inclination": ".9871272708736152",
        "ascending_node_longitude": "282.0780258366343",
        "orbital_period": "1335.230038774662",
        "perihelion_distance": ".9304659547179861",
        "perihelion_argument": "63.00389365200115",
        "aphelion_distance": "3.815614621838713",
        "perihelion_time": "2458749.586470656314",
        "mean_anomaly": "67.65041823551356",
        "mean_motion": ".2696164627410355",
        "equinox": "J2000",
        "orbit_class": {
            "orbit_class_type": "APO",
            "orbit_class_description": "Near-Earth asteroid orbits which cross the Earth’s orbit similar to that of 1862 Apollo",
            "orbit_class_range": "a (semi-major axis) > 1.0 AU; q (perihelion) < 1.017 AU"
        }
    },
    "is_sentry_object": false
}